ONEWEB-0446             
1 51640U 22012U   26004.61293849  .00000241  00000+0  65472-3 0  9990
2 51640  87.8786  68.8977 0001655 105.1802 254.9508 13.10376163187900
ONEWEB-0448             
1 51641U 22012V   26004.61791990  .00000495  00000+0  13826-2 0  9997
2 51641  87.8787  68.8956 0001770 100.6153 259.5174 13.10373817187875
ONEWEB-0449             
1 51642U 22012W   26004.62290338  .00000730  00000+0  20559-2 0  9992
2 51642  87.8787  68.8682 0002225 104.7135 255.4239 13.10372273187886
ONEWEB-0451             
1 51643U 22012X   26004.64234397  .00000013  00000+0  31870-6 0  9994
2 51643  87.9095  38.3425 0001900  96.0614 264.0734 13.17649554192126
ONEWEB-0452             
1 51644U 22012Y   26004.64064024 -.00000036  00000+0 -12695-3 0  9991
2 51644  87.9086  38.3953 0002085  93.1643 266.9727 13.17647914192130
ONEWEB-0456             
1 51646U 22012AA  26004.63285756  .00000470  00000+0  13112-2 0  9993
2 51646  87.8795  68.8383 0001651  95.3196 264.8120 13.10369930187925
ONEWEB-0457             
1 51647U 22012AB  26004.60961982  .00000341  00000+0  93993-3 0  9996
2 51647  87.8787  68.8859 0001849 116.0115 244.1203 13.10375671187928
ONEWEB-0458             
1 51648U 22012AC  26004.63120114  .00000505  00000+0  14100-2 0  9998
2 51648  87.8787  68.8573 0001881  98.9244 261.2096 13.10370145187885
